STARLINK-3649           
1 51980U 22025AA  25246.47239768 -.00000044  00000+0  15304-4 0  9994
2 51980  53.2170 159.5738 0001676  81.5177 278.6005 15.08847684192797
STARLINK-3635           
1 51981U 22025AB  25246.48710524  .00001956  00000+0  14089-3 0  9990
2 51981  53.2172 159.5092 0001412  85.7235 274.3918 15.08860130192799
STARLINK-3655           
1 51983U 22025AD  25246.48344788 -.00000689  00000+0 -25236-4 0  9998
2 51983  53.2183 159.5329 0001451  93.9717 266.1441 15.08833638192798
STARLINK-3664           
1 51984U 22025AE  25246.91866195 -.00003412  00000+0 -19650-3 0  9997
2 51984  53.2180 157.6621 0001628 100.2257 259.8919 15.08821322192861
STARLINK-3651           
1 51985U 22025AF  25246.47703874  .00001789  00000+0  13040-3 0  9993
2 51985  53.2178 159.5653 0001591  89.5639 270.5536 15.08852633192793
STARLINK-3645           
1 51986U 22025AG  25246.49076657  .00002277  00000+0  16102-3 0  9993
2 51986  53.2161 159.3376 0001132  86.4576 273.6546 15.08856780192807
STARLINK-3644           
1 51987U 22025AH  25246.91770495 -.00005718  00000+0 -34173-3 0  9995
2 51987  53.2165 157.5717 0001226  92.3847 267.7286 15.08813545192865
STARLINK-3640           
1 51988U 22025AJ  25246.89928192  .00000915  00000+0  75588-4 0  9990
2 51988  53.2165 157.6553 0001298  95.9844 264.1297 15.08839148192860
STARLINK-3642           
1 51989U 22025AK  25246.91402168 -.00001637  00000+0 -84840-4 0  9999
2 51989  53.2171 157.5894 0001438 100.0286 260.0868 15.08817777192862
STARLINK-3657           
1 51990U 22025AL  25246.41903897  .00001988  00000+0  14292-3 0  9991
2 51990  53.2163 139.8105 0001331  77.8661 282.2480 15.08855698193066
STARLINK-3652           
1 51991U 22025AM  25246.90664571  .00000135  00000+0  26552-4 0  9995
2 51991  53.2174 157.6240 0001395  96.5508 263.5643 15.08831060192862
STARLINK-3643           
1 51992U 22025AN  25246.93793428 -.00001532  00000+0 -78225-4 0  9991
2 51992  53.2180 137.4861 0001524  99.5854 260.5310 15.08829099192717
STARLINK-3648           
1 51993U 22025AP  25246.89560952 -.00002828  00000+0 -15968-3 0  9994
2 51993  53.2180 157.6744 0001566  83.3492 276.7678 15.08830771192868
STARLINK-3647           
1 51994U 22025AQ  25246.93426012 -.00001868  00000+0 -99365-4 0  9995
2 51994  53.2171 137.5004 0001360  98.9202 261.1944 15.08823441192723
STARLINK-3636           
1 51995U 22025AR  25246.94529255  .00000290  00000+0  36334-4 0  9993
2 51995  53.2174 137.4508 0001487  90.2614 269.8549 15.08828070192715
STARLINK-3538           
1 51996U 22025AS  25246.93057444 -.00000483  00000+0 -12287-4 0  9996
2 51996  53.2172 137.5165 0001120  69.2800 290.8312 15.08848045192728
