[{"OBJECT_NAME":"STARLINK-3649","OBJECT_ID":"2022-025AA","EPOCH":"2025-09-03T11:20:15.159552","MEAN_MOTION":15.08847684,"ECCENTRICITY":0.00016768,"INCLINATION":53.217,"RA_OF_ASC_NODE":159.5738,"ARG_OF_PERICENTER":81.5177,"MEAN_ANOMALY":278.6005,"EPHEMERIS_TYPE":0,"CLASSIFICATION_TYPE":"U","NORAD_CAT_ID":51980,"ELEMENT_SET_NO":999,"REV_AT_EPOCH":19279,"BSTAR":1.5303612e-5,"MEAN_MOTION_DOT":-4.4e-7,"MEAN_MOTION_DDOT":0},{"OBJECT_NAME":"STARLINK-3635","OBJECT_ID":"2022-025AB","EPOCH":"2025-09-03T11:41:25.892736","MEAN_MOTION":15.0886013,"ECCENTRICITY":0.00014126,"INCLINATION":53.2172,"RA_OF_ASC_NODE":159.5092,"ARG_OF_PERICENTER":85.7235,"MEAN_ANOMALY":274.3918,"EPHEMERIS_TYPE":0,"CLASSIFICATION_TYPE":"U","NORAD_CAT_ID":51981,"ELEMENT_SET_NO":999,"REV_AT_EPOCH":19279,"BSTAR":0.00014089131,"MEAN_MOTION_DOT":1.956e-5,"MEAN_MOTION_DDOT":0},{"OBJECT_NAME":"STARLINK-3655","OBJECT_ID":"2022-025AD","EPOCH":"2025-09-03T11:36:09.896832","MEAN_MOTION":15.08833638,"ECCENTRICITY":0.00014511,"INCLINATION":53.2183,"RA_OF_ASC_NODE":159.5329,"ARG_OF_PERICENTER":93.9717,"MEAN_ANOMALY":266.1441,"EPHEMERIS_TYPE":0,"CLASSIFICATION_TYPE":"U","NORAD_CAT_ID":51983,"ELEMENT_SET_NO":999,"REV_AT_EPOCH":19279,"BSTAR":-2.5236123e-5,"MEAN_MOTION_DOT":-6.89e-6,"MEAN_MOTION_DDOT":0},{"OBJECT_NAME":"STARLINK-3664","OBJECT_ID":"2022-025AE","EPOCH":"2025-09-03T22:02:52.392480","MEAN_MOTION":15.08821322,"ECCENTRICITY":0.00016286,"INCLINATION":53.218,"RA_OF_ASC_NODE":157.6621,"ARG_OF_PERICENTER":100.2257,"MEAN_ANOMALY":259.8919,"EPHEMERIS_TYPE":0,"CLASSIFICATION_TYPE":"U","NORAD_CAT_ID":51984,"ELEMENT_SET_NO":999,"REV_AT_EPOCH":19286,"BSTAR":-0.00019650098,"MEAN_MOTION_DOT":-3.412e-5,"MEAN_MOTION_DDOT":0},{"OBJECT_NAME":"STARLINK-3651","OBJECT_ID":"2022-025AF","EPOCH":"2025-09-03T11:26:56.147136","MEAN_MOTION":15.08852633,"ECCENTRICITY":0.00015915,"INCLINATION":53.2178,"RA_OF_ASC_NODE":159.5653,"ARG_OF_PERICENTER":89.5639,"MEAN_ANOMALY":270.5536,"EPHEMERIS_TYPE":0,"CLASSIFICATION_TYPE":"U","NORAD_CAT_ID":51985,"ELEMENT_SET_NO":999,"REV_AT_EPOCH":19279,"BSTAR":0.00013039529,"MEAN_MOTION_DOT":1.789e-5,"MEAN_MOTION_DDOT":0},{"OBJECT_NAME":"STARLINK-3645","OBJECT_ID":"2022-025AG","EPOCH":"2025-09-03T11:46:42.231648","MEAN_MOTION":15.0885678,"ECCENTRICITY":0.00011323,"INCLINATION":53.2161,"RA_OF_ASC_NODE":159.3376,"ARG_OF_PERICENTER":86.4576,"MEAN_ANOMALY":273.6546,"EPHEMERIS_TYPE":0,"CLASSIFICATION_TYPE":"U","NORAD_CAT_ID":51986,"ELEMENT_SET_NO":999,"REV_AT_EPOCH":19280,"BSTAR":0.00016101735,"MEAN_MOTION_DOT":2.277e-5,"MEAN_MOTION_DDOT":0},{"OBJECT_NAME":"STARLINK-3644","OBJECT_ID":"2022-025AH","EPOCH":"2025-09-03T22:01:29.707680","MEAN_MOTION":15.08813545,"ECCENTRICITY":0.00012261,"INCLINATION":53.2165,"RA_OF_ASC_NODE":157.5717,"ARG_OF_PERICENTER":92.3847,"MEAN_ANOMALY":267.7286,"EPHEMERIS_TYPE":0,"CLASSIFICATION_TYPE":"U","NORAD_CAT_ID":51987,"ELEMENT_SET_NO":999,"REV_AT_EPOCH":19286,"BSTAR":-0.00034172597,"MEAN_MOTION_DOT":-5.718e-5,"MEAN_MOTION_DDOT":0},{"OBJECT_NAME":"STARLINK-3640","OBJECT_ID":"2022-025AJ","EPOCH":"2025-09-03T21:34:57.957888","MEAN_MOTION":15.08839148,"ECCENTRICITY":0.00012987,"INCLINATION":53.2165,"RA_OF_ASC_NODE":157.6553,"ARG_OF_PERICENTER":95.9844,"MEAN_ANOMALY":264.1297,"EPHEMERIS_TYPE":0,"CLASSIFICATION_TYPE":"U","NORAD_CAT_ID":51988,"ELEMENT_SET_NO":999,"REV_AT_EPOCH":19286,"BSTAR":7.5587913e-5,"MEAN_MOTION_DOT":9.15e-6,"MEAN_MOTION_DDOT":0},{"OBJECT_NAME":"STARLINK-3642","OBJECT_ID":"2022-025AK","EPOCH":"2025-09-03T21:56:11.473152","MEAN_MOTION":15.08817777,"ECCENTRICITY":0.00014386,"INCLINATION":53.2171,"RA_OF_ASC_NODE":157.5894,"ARG_OF_PERICENTER":100.0286,"MEAN_ANOMALY":260.0868,"EPHEMERIS_TYPE":0,"CLASSIFICATION_TYPE":"U","NORAD_CAT_ID":51989,"ELEMENT_SET_NO":999,"REV_AT_EPOCH":19286,"BSTAR":-8.4840456e-5,"MEAN_MOTION_DOT":-1.637e-5,"MEAN_MOTION_DDOT":0},{"OBJECT_NAME":"STARLINK-3657","OBJECT_ID":"2022-025AL","EPOCH":"2025-09-03T10:03:24.967008","MEAN_MOTION":15.08855698,"ECCENTRICITY":0.00013315,"INCLINATION":53.2163,"RA_OF_ASC_NODE":139.8105,"ARG_OF_PERICENTER":77.8661,"MEAN_ANOMALY":282.248,"EPHEMERIS_TYPE":0,"CLASSIFICATION_TYPE":"U","NORAD_CAT_ID":51990,"ELEMENT_SET_NO":999,"REV_AT_EPOCH":19306,"BSTAR":0.00014292297,"MEAN_MOTION_DOT":1.988e-5,"MEAN_MOTION_DDOT":0},{"OBJECT_NAME":"STARLINK-3652","OBJECT_ID":"2022-025AM","EPOCH":"2025-09-03T21:45:34.189344","MEAN_MOTION":15.0883106,"ECCENTRICITY":0.00013957,"INCLINATION":53.2174,"RA_OF_ASC_NODE":157.624,"ARG_OF_PERICENTER":96.5508,"MEAN_ANOMALY":263.5643,"EPHEMERIS_TYPE":0,"CLASSIFICATION_TYPE":"U","NORAD_CAT_ID":51991,"ELEMENT_SET_NO":999,"REV_AT_EPOCH":19286,"BSTAR":2.6552023e-5,"MEAN_MOTION_DOT":1.35e-6,"MEAN_MOTION_DDOT":0},{"OBJECT_NAME":"STARLINK-3643","OBJECT_ID":"2022-025AN","EPOCH":"2025-09-03T22:30:37.521792","MEAN_MOTION":15.08829099,"ECCENTRICITY":0.00015241,"INCLINATION":53.218,"RA_OF_ASC_NODE":137.4861,"ARG_OF_PERICENTER":99.5854,"MEAN_ANOMALY":260.531,"EPHEMERIS_TYPE":0,"CLASSIFICATION_TYPE":"U","NORAD_CAT_ID":51992,"ELEMENT_SET_NO":999,"REV_AT_EPOCH":19271,"BSTAR":-7.8225248e-5,"MEAN_MOTION_DOT":-1.532e-5,"MEAN_MOTION_DDOT":0},{"OBJECT_NAME":"STARLINK-3648","OBJECT_ID":"2022-025AP","EPOCH":"2025-09-03T21:29:40.662528","MEAN_MOTION":15.08830771,"ECCENTRICITY":0.00015663,"INCLINATION":53.218,"RA_OF_ASC_NODE":157.6744,"ARG_OF_PERICENTER":83.3492,"MEAN_ANOMALY":276.7678,"EPHEMERIS_TYPE":0,"CLASSIFICATION_TYPE":"U","NORAD_CAT_ID":51993,"ELEMENT_SET_NO":999,"REV_AT_EPOCH":19286,"BSTAR":-0.00015967784,"MEAN_MOTION_DOT":-2.828e-5,"MEAN_MOTION_DDOT":0},{"OBJECT_NAME":"STARLINK-3647","OBJECT_ID":"2022-025AQ","EPOCH":"2025-09-03T22:25:20.074368","MEAN_MOTION":15.08823441,"ECCENTRICITY":0.00013601,"INCLINATION":53.2171,"RA_OF_ASC_NODE":137.5004,"ARG_OF_PERICENTER":98.9202,"MEAN_ANOMALY":261.1944,"EPHEMERIS_TYPE":0,"CLASSIFICATION_TYPE":"U","NORAD_CAT_ID":51994,"ELEMENT_SET_NO":999,"REV_AT_EPOCH":19272,"BSTAR":-9.9364678e-5,"MEAN_MOTION_DOT":-1.868e-5,"MEAN_MOTION_DDOT":0},{"OBJECT_NAME":"STARLINK-3636","OBJECT_ID":"2022-025AR","EPOCH":"2025-09-03T22:41:13.276320","MEAN_MOTION":15.0882807,"ECCENTRICITY":0.00014876,"INCLINATION":53.2174,"RA_OF_ASC_NODE":137.4508,"ARG_OF_PERICENTER":90.2614,"MEAN_ANOMALY":269.8549,"EPHEMERIS_TYPE":0,"CLASSIFICATION_TYPE":"U","NORAD_CAT_ID":51995,"ELEMENT_SET_NO":999,"REV_AT_EPOCH":19271,"BSTAR":3.6334037e-5,"MEAN_MOTION_DOT":2.9e-6,"MEAN_MOTION_DDOT":0},{"OBJECT_NAME":"STARLINK-3538","OBJECT_ID":"2022-025AS","EPOCH":"2025-09-03T22:20:01.631616","MEAN_MOTION":15.08848045,"ECCENTRICITY":0.00011203,"INCLINATION":53.2172,"RA_OF_ASC_NODE":137.5165,"ARG_OF_PERICENTER":69.28,"MEAN_ANOMALY":290.8312,"EPHEMERIS_TYPE":0,"CLASSIFICATION_TYPE":"U","NORAD_CAT_ID":51996,"ELEMENT_SET_NO":999,"REV_AT_EPOCH":19272,"BSTAR":-1.2286541e-5,"MEAN_MOTION_DOT":-4.83e-6,"MEAN_MOTION_DDOT":0}]
